FENGYUN 3D              
1 43010U 17072A   26164.62361991  .00000205  00000+0  11855-3 0  9990
2 43010  99.0118 138.9810 0002597  67.2131 292.9318 14.19739058444486
NOAA 20 (JPSS-1)        
1 43013U 17073A   26164.61798726  .00000025  00000+0  32861-4 0  9994
2 43013  98.7773 104.1123 0000295  68.3291 291.7916 14.19511095443968
GOES 17                 
1 43226U 18022A   26164.53035343 -.00000172  00000+0  00000+0 0  9994
2 43226   0.9277  85.7717 0000414  32.1494 245.3562  1.00270307 30382
SENTINEL-3B             
1 43437U 18039A   26164.61307802  .00000106  00000+0  62039-4 0  9998
2 43437  98.6250 232.1965 0000764  83.5534 276.5734 14.26733942423617
FENGYUN 2H              
1 43491U 18050A   26164.63509111 -.00000121  00000+0  00000+0 0  9993
2 43491   3.0207  79.1197 0001896 134.7600 356.1279  1.00269974 29400
METOP-C                 
1 43689U 18087A   26164.61906340  .00000099  00000+0  65181-4 0  9994
2 43689  98.6645 224.2878 0001639 133.4580 226.6734 14.21511232394329
GEO-KOMPSAT-2A          
1 43823U 18100A   26164.57346023 -.00000332  00000+0  00000+0 0  9996
2 43823   0.0498 136.9042 0001808 308.2614 151.4319  1.00272316 27598
METEOR-M2 2             
1 44387U 19038A   26164.59187170  .00000111  00000+0  67753-4 0  9998
2 44387  98.9137 151.8238 0002181  52.5891 307.5485 14.24365025360783
ARKTIKA-M 1             
1 47719U 21016A   26160.51571443 -.00000149  00000+0  00000+0 0  9996
2 47719  63.2417  58.7595 7285674 269.8905  14.6803  2.00625436 38630
FENGYUN 3E              
1 49008U 21062A   26164.60788256 -.00000070  00000+0 -12402-4 0  9994
2 49008  98.7490 168.0554 0002801  90.4004 269.7493 14.19903917256071
GOES 18                 
1 51850U 22021A   26164.59220125  .00000108  00000+0  00000+0 0  9998
2 51850   0.0202 162.6244 0000472   2.1747 173.2976  1.00271808  6552
NOAA 21 (JPSS-2)        
1 54234U 22150A   26164.58053520  .00000034  00000+0  36886-4 0  9996
2 54234  98.7061 103.4303 0001447 162.0036 198.1192 14.19564823186031
METEOSAT-12 (MTG-I1)    
1 54743U 22170C   26164.61927816  .00000002  00000+0  00000+0 0  9994
2 54743   0.7339  22.3393 0003153  72.2402  29.8704  1.00271898 12940
TIANMU-1 03             
1 55973U 23039A   26164.62248174  .00015253  00000+0  30175-3 0  9993
2 55973  97.5222 338.4528 0004278 108.1803 251.9913 15.47190720180288
TIANMU-1 04             
1 55974U 23039B   26164.61333156  .00015634  00000+0  30290-3 0  9999
2 55974  97.5161 337.5966 0004833 105.2928 254.8856 15.47786410180296
TIANMU-1 05             
1 55975U 23039C   26164.66775537  .00015192  00000+0  30132-3 0  9992
2 55975  97.5204 338.1160 0003868 122.8848 237.2774 15.47119208180278
TIANMU-1 06             
1 55976U 23039D   26164.61648990  .00015365  00000+0  29875-3 0  9994
2 55976  97.5213 338.6948 0004274 119.8401 240.3275 15.47691501180295
FENGYUN 3G              
1 56232U 23055A   26164.56663179  .00024120  00000+0  39228-3 0  9990
2 56232  49.9937   4.6757 0006901 281.1046  78.9145 15.52476308179448
METEOR-M2 3             
1 57166U 23091A   26164.65561859  .00000008  00000+0  22414-4 0  9998
2 57166  98.6090 219.7061 0004158 164.4375 195.6933 14.24046506154012
TIANMU-1 07             
1 57399U 23101A   26164.63336279  .00006571  00000+0  23039-3 0  9996
2 57399  97.2597 215.3831 0003915 128.6823 231.4769 15.29769576161103
TIANMU-1 08             
1 57400U 23101B   26164.66542612  .00006483  00000+0  22729-3 0  9999
2 57400  97.2585 215.1856 0005427 123.4824 236.6936 15.29774782161100
TIANMU-1 09             
1 57401U 23101C   26164.64891043  .00006422  00000+0  22498-3 0  9999
2 57401  97.2544 214.5871 0004337 134.8084 225.3510 15.29804274161102
TIANMU-1 10             
1 57402U 23101D   26164.61648512  .00006934  00000+0  24289-3 0  9996
2 57402  97.2624 215.6022 0005952 135.4282 224.7439 15.29775565161094
FENGYUN 3F              
1 57490U 23111A   26164.66234934  .00000042  00000+0  40352-4 0  9992
2 57490  98.6836 234.7366 0001587  95.5223 264.6135 14.19938525148361
ARKTIKA-M 2             
1 58584U 23198A   26160.78386103  .00000212  00000+0  00000+0 0  9997
2 58584  63.2205 155.1874 6900401 267.4353  18.7899  2.00606537 18179
TIANMU-1 11             
1 58645U 23205A   26164.64589743  .00005768  00000+0  22042-3 0  9993
2 58645  97.3444 186.2582 0009381  28.8271 331.3484 15.26962382136989
TIANMU-1 12             
1 58646U 23205B   26164.61617822  .00006024  00000+0  23043-3 0  9999
2 58646  97.3433 185.9854 0007182  16.2644 343.8824 15.26925213136964
TIANMU-1 13             
1 58647U 23205C   26164.64801738  .00005901  00000+0  22680-3 0  9993
2 58647  97.3461 186.2888 0006332 355.1993   4.9184 15.26779875136960
TIANMU-1 14             
1 58648U 23205D   26164.63332718  .00005745  00000+0  22056-3 0  9993
2 58648  97.3397 185.4589 0007308 359.0119   1.1104 15.26824126136966
TIANMU-1 19             
1 58660U 23208A   26164.62818713  .00008294  00000+0  27496-3 0  9998
2 58660  97.4502 280.9096 0004071 344.0602  16.0510 15.31524684136786
