OBJECT_NAME,OBJECT_ID,EPOCH,MEAN_MOTION,ECCENTRICITY,INCLINATION,RA_OF_ASC_NODE,ARG_OF_PERICENTER,MEAN_ANOMALY,EPHEMERIS_TYPE,CLASSIFICATION_TYPE,NORAD_CAT_ID,ELEMENT_SET_NO,REV_AT_EPOCH,BSTAR,MEAN_MOTION_DOT,MEAN_MOTION_DDOT
FENGYUN 3D,2017-072A,2026-06-13T14:58:00.760224,14.19739058,.00025974,99.0118,138.9810,67.2131,292.9318,0,U,43010,999,44448,.11855039E-3,.205E-5,0
NOAA 20 (JPSS-1),2017-073A,2026-06-13T14:49:54.099264,14.19511095,.00002953,98.7773,104.1123,68.3291,291.7916,0,U,43013,999,44396,.32860575E-4,.25E-6,0
GOES 17,2018-022A,2026-06-13T12:43:42.536352,1.00270307,.00004149,0.9277,85.7717,32.1494,245.3562,0,U,43226,999,3038,0,-.172E-5,0
SENTINEL-3B,2018-039A,2026-06-13T14:42:49.940928,14.26733942,.00007646,98.6250,232.1965,83.5534,276.5734,0,U,43437,999,42361,.62038782E-4,.106E-5,0
FENGYUN 2H,2018-050A,2026-06-13T15:14:31.871904,1.00269974,.00018968,3.0207,79.1197,134.7600,356.1279,0,U,43491,999,2940,0,-.121E-5,0
METOP-C,2018-087A,2026-06-13T14:51:27.077760,14.21511232,.00016393,98.6645,224.2878,133.4580,226.6734,0,U,43689,999,39432,.6518054E-4,.99E-6,0
GEO-KOMPSAT-2A,2018-100A,2026-06-13T13:45:46.963872,1.00272316,.00018087,0.0498,136.9042,308.2614,151.4319,0,U,43823,999,2759,0,-.332E-5,0
METEOR-M2 2,2019-038A,2026-06-13T14:12:17.714880,14.24365025,.00021815,98.9137,151.8238,52.5891,307.5485,0,U,44387,999,36078,.67752699E-4,.111E-5,0
ARKTIKA-M 1,2021-016A,2026-06-09T12:22:37.726752,2.00625436,.7285674,63.2417,58.7595,269.8905,14.6803,0,U,47719,999,3863,0,-.149E-5,0
FENGYUN 3E,2021-062A,2026-06-13T14:35:21.053184,14.19903917,.00028017,98.7490,168.0554,90.4004,269.7493,0,U,49008,999,25607,-.12401892E-4,-.7E-6,0
GOES 18,2022-021A,2026-06-13T14:12:46.188000,1.00271808,.00004729,0.0202,162.6244,2.1747,173.2976,0,U,51850,999,655,0,.108E-5,0
NOAA 21 (JPSS-2),2022-150A,2026-06-13T13:55:58.241280,14.19564823,.00014471,98.7061,103.4303,162.0036,198.1192,0,U,54234,999,18603,.3688571E-4,.34E-6,0
METEOSAT-12 (MTG-I1),2022-170C,2026-06-13T14:51:45.633024,1.00271898,.00031531,0.7339,22.3393,72.2402,29.8704,0,U,54743,999,1294,0,.2E-7,0
TIANMU-1 03,2023-039A,2026-06-13T14:56:22.422336,15.47190720,.00042786,97.5222,338.4528,108.1803,251.9913,0,U,55973,999,18028,.30174681E-3,.15253E-3,0
TIANMU-1 04,2023-039B,2026-06-13T14:43:11.846784,15.47786410,.00048336,97.5161,337.5966,105.2928,254.8856,0,U,55974,999,18029,.30290496E-3,.15634E-3,0
TIANMU-1 05,2023-039C,2026-06-13T16:01:34.063968,15.47119208,.00038681,97.5204,338.1160,122.8848,237.2774,0,U,55975,999,18027,.30131588E-3,.15192E-3,0
TIANMU-1 06,2023-039D,2026-06-13T14:47:44.727360,15.47691501,.00042749,97.5213,338.6948,119.8401,240.3275,0,U,55976,999,18029,.29875188E-3,.15365E-3,0
FENGYUN 3G,2023-055A,2026-06-13T13:35:56.986656,15.52476308,.00069015,49.9937,4.6757,281.1046,78.9145,0,U,56232,999,17944,.39227663E-3,.2412E-3,0
METEOR-M2 3,2023-091A,2026-06-13T15:44:05.446176,14.24046506,.00041588,98.6090,219.7061,164.4375,195.6933,0,U,57166,999,15401,.2241424E-4,.8E-7,0
TIANMU-1 07,2023-101A,2026-06-13T15:12:02.545056,15.29769576,.00039159,97.2597,215.3831,128.6823,231.4769,0,U,57399,999,16110,.23039129E-3,.6571E-4,0
TIANMU-1 08,2023-101B,2026-06-13T15:58:12.816768,15.29774782,.00054279,97.2585,215.1856,123.4824,236.6936,0,U,57400,999,16110,.22728811E-3,.6483E-4,0
TIANMU-1 09,2023-101C,2026-06-13T15:34:25.861152,15.29804274,.00043377,97.2544,214.5871,134.8084,225.3510,0,U,57401,999,16110,.22497938E-3,.6422E-4,0
TIANMU-1 10,2023-101D,2026-06-13T14:47:44.314368,15.29775565,.00059529,97.2624,215.6022,135.4282,224.7439,0,U,57402,999,16109,.24289064E-3,.6934E-4,0
FENGYUN 3F,2023-111A,2026-06-13T15:53:46.982976,14.19938525,.00015876,98.6836,234.7366,95.5223,264.6135,0,U,57490,999,14836,.4035215E-4,.42E-6,0
ARKTIKA-M 2,2023-198A,2026-06-09T18:48:45.592992,2.00606537,.69004015,63.2205,155.1874,267.4353,18.7899,0,U,58584,999,1817,0,.212E-5,0
TIANMU-1 11,2023-205A,2026-06-13T15:30:05.537952,15.26962382,.0009381,97.3444,186.2582,28.8271,331.3484,0,U,58645,999,13698,.22042198E-3,.5768E-4,0
TIANMU-1 12,2023-205B,2026-06-13T14:47:17.798208,15.26925213,.00071821,97.3433,185.9854,16.2644,343.8824,0,U,58646,999,13696,.23043205E-3,.6024E-4,0
TIANMU-1 13,2023-205C,2026-06-13T15:33:08.701632,15.26779875,.00063329,97.3461,186.2888,355.1993,4.9184,0,U,58647,999,13696,.22680476E-3,.5901E-4,0
TIANMU-1 14,2023-205D,2026-06-13T15:11:59.468352,15.26824126,.00073083,97.3397,185.4589,359.0119,1.1104,0,U,58648,999,13696,.22055946E-3,.5745E-4,0
TIANMU-1 19,2023-208A,2026-06-13T15:04:35.368032,15.31524684,.00040712,97.4502,280.9096,344.0602,16.0510,0,U,58660,999,13678,.2749595E-3,.8294E-4,0
